[{"OBJECT_NAME":"STARLINK-4508","OBJECT_ID":"2022-101AJ","EPOCH":"2026-03-09T23:40:37.600320","MEAN_MOTION":15.08830312,"ECCENTRICITY":0.0001271,"INCLINATION":53.2174,"RA_OF_ASC_NODE":62.785,"ARG_OF_PERICENTER":72.915,"MEAN_ANOMALY":287.1981,"EPHEMERIS_TYPE":0,"CLASSIFICATION_TYPE":"U","NORAD_CAT_ID":53559,"ELEMENT_SET_NO":999,"REV_AT_EPOCH":19635,"BSTAR":4.2527157e-5,"MEAN_MOTION_DOT":3.89e-6,"MEAN_MOTION_DDOT":0},{"OBJECT_NAME":"SEDSAT 1 (SO-33)","OBJECT_ID":"1998-061B","EPOCH":"2026-03-09T01:12:01.146528","MEAN_MOTION":14.33274004,"ECCENTRICITY":0.03368459,"INCLINATION":31.4338,"RA_OF_ASC_NODE":325.4833,"ARG_OF_PERICENTER":271.633,"MEAN_ANOMALY":84.5745,"EPHEMERIS_TYPE":0,"CLASSIFICATION_TYPE":"U","NORAD_CAT_ID":25509,"ELEMENT_SET_NO":999,"REV_AT_EPOCH":43145,"BSTAR":6.9265016e-5,"MEAN_MOTION_DOT":4.4e-6,"MEAN_MOTION_DDOT":0}]
